[{"OBJECT_NAME":"JILIN-1 GAOFEN 03D52","OBJECT_ID":"2022-155E","EPOCH":"2026-03-09T23:35:25.140768","MEAN_MOTION":15.51754005,"ECCENTRICITY":0.00041872,"INCLINATION":97.6041,"RA_OF_ASC_NODE":205.6865,"ARG_OF_PERICENTER":23.2196,"MEAN_ANOMALY":336.9244,"EPHEMERIS_TYPE":0,"CLASSIFICATION_TYPE":"U","NORAD_CAT_ID":54255,"ELEMENT_SET_NO":999,"REV_AT_EPOCH":18428,"BSTAR":0.00078662811,"MEAN_MOTION_DOT":0.00047033,"MEAN_MOTION_DDOT":0},{"OBJECT_NAME":"BREEZE-M DEB [TANK]","OBJECT_ID":"2013-056C","EPOCH":"2026-03-08T09:15:31.596768","MEAN_MOTION":5.32205998,"ECCENTRICITY":0.5163442,"INCLINATION":49.5172,"RA_OF_ASC_NODE":57.7358,"ARG_OF_PERICENTER":117.7382,"MEAN_ANOMALY":303.4762,"EPHEMERIS_TYPE":0,"CLASSIFICATION_TYPE":"U","NORAD_CAT_ID":39287,"ELEMENT_SET_NO":999,"REV_AT_EPOCH":23689,"BSTAR":0.00078948591,"MEAN_MOTION_DOT":3.118e-5,"MEAN_MOTION_DDOT":0}]
